[{"OBJECT_NAME":"INMARSAT 4-F2 (SOUTHPAN/PRN 122)","OBJECT_ID":"2005-044A","EPOCH":"2026-03-06T19:47:51.645120","MEAN_MOTION":1.00271641,"ECCENTRICITY":0.0002732,"INCLINATION":4.9606,"RA_OF_ASC_NODE":43.8039,"ARG_OF_PERICENTER":325.0478,"MEAN_ANOMALY":236.1486,"EPHEMERIS_TYPE":0,"CLASSIFICATION_TYPE":"U","NORAD_CAT_ID":28899,"ELEMENT_SET_NO":999,"REV_AT_EPOCH":7449,"BSTAR":0,"MEAN_MOTION_DOT":-2.62e-6,"MEAN_MOTION_DDOT":0},{"OBJECT_NAME":"GSAT-8 (GAGAN/PRN 127)","OBJECT_ID":"2011-022A","EPOCH":"2026-03-07T02:11:57.874848","MEAN_MOTION":1.0027352,"ECCENTRICITY":0.0007126,"INCLINATION":1.8669,"RA_OF_ASC_NODE":83.1218,"ARG_OF_PERICENTER":216.6964,"MEAN_ANOMALY":313.0303,"EPHEMERIS_TYPE":0,"CLASSIFICATION_TYPE":"U","NORAD_CAT_ID":37605,"ELEMENT_SET_NO":999,"REV_AT_EPOCH":5219,"BSTAR":0,"MEAN_MOTION_DOT":8.2e-7,"MEAN_MOTION_DDOT":0},{"OBJECT_NAME":"LUCH 5A (SDCM/PRN 140)","OBJECT_ID":"2011-074B","EPOCH":"2026-03-06T19:53:07.888992","MEAN_MOTION":1.00276047,"ECCENTRICITY":0.0003865,"INCLINATION":8.4932,"RA_OF_ASC_NODE":75.3103,"ARG_OF_PERICENTER":248.4778,"MEAN_ANOMALY":306.164,"EPHEMERIS_TYPE":0,"CLASSIFICATION_TYPE":"U","NORAD_CAT_ID":37951,"ELEMENT_SET_NO":999,"REV_AT_EPOCH":5202,"BSTAR":0,"MEAN_MOTION_DOT":-4.9e-7,"MEAN_MOTION_DDOT":0},{"OBJECT_NAME":"SES-5 (EGNOS/PRN 136)","OBJECT_ID":"2012-036A","EPOCH":"2026-03-06T05:25:24.259008","MEAN_MOTION":1.00271218,"ECCENTRICITY":0.0001901,"INCLINATION":0.0597,"RA_OF_ASC_NODE":310.4117,"ARG_OF_PERICENTER":31.4449,"MEAN_ANOMALY":268.4077,"EPHEMERIS_TYPE":0,"CLASSIFICATION_TYPE":"U","NORAD_CAT_ID":38652,"ELEMENT_SET_NO":999,"REV_AT_EPOCH":4342,"BSTAR":0,"MEAN_MOTION_DOT":2.8e-7,"MEAN_MOTION_DDOT":0},{"OBJECT_NAME":"GSAT-10 (GAGAN/PRN 128)","OBJECT_ID":"2012-051B","EPOCH":"2026-03-07T02:19:57.108864","MEAN_MOTION":1.00273368,"ECCENTRICITY":0.0004573,"INCLINATION":0.0668,"RA_OF_ASC_NODE":261.7902,"ARG_OF_PERICENTER":177.774,"MEAN_ANOMALY":203.2099,"EPHEMERIS_TYPE":0,"CLASSIFICATION_TYPE":"U","NORAD_CAT_ID":38779,"ELEMENT_SET_NO":999,"REV_AT_EPOCH":4907,"BSTAR":0,"MEAN_MOTION_DOT":-1.67e-6,"MEAN_MOTION_DDOT":0},{"OBJECT_NAME":"LUCH 5B (SDCM/PRN 125)","OBJECT_ID":"2012-061A","EPOCH":"2026-03-06T18:23:09.498624","MEAN_MOTION":1.00272261,"ECCENTRICITY":0.0003692,"INCLINATION":10.2623,"RA_OF_ASC_NODE":50.8817,"ARG_OF_PERICENTER":226.3927,"MEAN_ANOMALY":146.6875,"EPHEMERIS_TYPE":0,"CLASSIFICATION_TYPE":"U","NORAD_CAT_ID":38977,"ELEMENT_SET_NO":999,"REV_AT_EPOCH":4858,"BSTAR":0,"MEAN_MOTION_DOT":-1.39e-6,"MEAN_MOTION_DDOT":0},{"OBJECT_NAME":"ASTRA 5B (EGNOS/PRN 123)","OBJECT_ID":"2014-011B","EPOCH":"2026-03-07T01:52:21.715104","MEAN_MOTION":1.00272471,"ECCENTRICITY":0.0004003,"INCLINATION":0.0853,"RA_OF_ASC_NODE":301.2671,"ARG_OF_PERICENTER":28.9943,"MEAN_ANOMALY":246.0885,"EPHEMERIS_TYPE":0,"CLASSIFICATION_TYPE":"U","NORAD_CAT_ID":39617,"ELEMENT_SET_NO":999,"REV_AT_EPOCH":4364,"BSTAR":0,"MEAN_MOTION_DOT":1.34e-6,"MEAN_MOTION_DDOT":0},{"OBJECT_NAME":"LUCH 5V (SDCM/PRN 141)","OBJECT_ID":"2014-023A","EPOCH":"2026-03-07T00:40:36.633792","MEAN_MOTION":1.00271257,"ECCENTRICITY":0.0003076,"INCLINATION":4.8814,"RA_OF_ASC_NODE":70.7503,"ARG_OF_PERICENTER":285.6629,"MEAN_ANOMALY":273.2102,"EPHEMERIS_TYPE":0,"CLASSIFICATION_TYPE":"U","NORAD_CAT_ID":39727,"ELEMENT_SET_NO":999,"REV_AT_EPOCH":4333,"BSTAR":0,"MEAN_MOTION_DOT":-2.7e-6,"MEAN_MOTION_DDOT":0},{"OBJECT_NAME":"GSAT-15 (GAGAN/PRN 139)","OBJECT_ID":"2015-065A","EPOCH":"2026-03-07T02:22:56.820864","MEAN_MOTION":1.00272269,"ECCENTRICITY":0.0001193,"INCLINATION":0.083,"RA_OF_ASC_NODE":269.5337,"ARG_OF_PERICENTER":109.3872,"MEAN_ANOMALY":275.1,"EPHEMERIS_TYPE":0,"CLASSIFICATION_TYPE":"U","NORAD_CAT_ID":41028,"ELEMENT_SET_NO":999,"REV_AT_EPOCH":3777,"BSTAR":0,"MEAN_MOTION_DOT":-2.6e-6,"MEAN_MOTION_DDOT":0},{"OBJECT_NAME":"EUTELSAT 117 WEST B (WAAS/PRN 131)","OBJECT_ID":"2016-038B","EPOCH":"2026-03-07T03:22:38.728128","MEAN_MOTION":1.00270832,"ECCENTRICITY":4.44e-5,"INCLINATION":0.0167,"RA_OF_ASC_NODE":306.1248,"ARG_OF_PERICENTER":315.0686,"MEAN_ANOMALY":197.3291,"EPHEMERIS_TYPE":0,"CLASSIFICATION_TYPE":"U","NORAD_CAT_ID":41589,"ELEMENT_SET_NO":999,"REV_AT_EPOCH":3564,"BSTAR":0,"MEAN_MOTION_DOT":-1.4e-7,"MEAN_MOTION_DDOT":0},{"OBJECT_NAME":"SES-15 (WAAS/PRN 133)","OBJECT_ID":"2017-026A","EPOCH":"2026-03-07T03:30:38.669760","MEAN_MOTION":1.00273335,"ECCENTRICITY":0.0001005,"INCLINATION":0.0446,"RA_OF_ASC_NODE":333.643,"ARG_OF_PERICENTER":26.6136,"MEAN_ANOMALY":88.0888,"EPHEMERIS_TYPE":0,"CLASSIFICATION_TYPE":"U","NORAD_CAT_ID":42709,"ELEMENT_SET_NO":999,"REV_AT_EPOCH":640,"BSTAR":0,"MEAN_MOTION_DOT":5.7e-7,"MEAN_MOTION_DDOT":0},{"OBJECT_NAME":"QZS-2 (QZSS/PRN 194)","OBJECT_ID":"2017-028A","EPOCH":"2026-03-06T21:25:38.719200","MEAN_MOTION":1.00261347,"ECCENTRICITY":0.0745331,"INCLINATION":39.5865,"RA_OF_ASC_NODE":244.6431,"ARG_OF_PERICENTER":270.3514,"MEAN_ANOMALY":112.5324,"EPHEMERIS_TYPE":0,"CLASSIFICATION_TYPE":"U","NORAD_CAT_ID":42738,"ELEMENT_SET_NO":999,"REV_AT_EPOCH":660,"BSTAR":0,"MEAN_MOTION_DOT":-1.62e-6,"MEAN_MOTION_DDOT":0},{"OBJECT_NAME":"QZS-3 (QZSS/PRN 199)","OBJECT_ID":"2017-048A","EPOCH":"2026-03-06T23:26:38.829120","MEAN_MOTION":1.00275138,"ECCENTRICITY":0.0002297,"INCLINATION":0.0677,"RA_OF_ASC_NODE":212.1895,"ARG_OF_PERICENTER":148.7583,"MEAN_ANOMALY":282.4115,"EPHEMERIS_TYPE":0,"CLASSIFICATION_TYPE":"U","NORAD_CAT_ID":42917,"ELEMENT_SET_NO":999,"REV_AT_EPOCH":3123,"BSTAR":0,"MEAN_MOTION_DOT":-3.51e-6,"MEAN_MOTION_DDOT":0},{"OBJECT_NAME":"QZS-4 (QZSS/PRN 195)","OBJECT_ID":"2017-062A","EPOCH":"2026-03-05T17:47:25.010880","MEAN_MOTION":1.00280691,"ECCENTRICITY":0.07484947,"INCLINATION":40.1722,"RA_OF_ASC_NODE":344.8064,"ARG_OF_PERICENTER":269.915,"MEAN_ANOMALY":316.0784,"EPHEMERIS_TYPE":0,"CLASSIFICATION_TYPE":"U","NORAD_CAT_ID":42965,"ELEMENT_SET_NO":999,"REV_AT_EPOCH":3076,"BSTAR":0,"MEAN_MOTION_DOT":-3.41e-6,"MEAN_MOTION_DDOT":0},{"OBJECT_NAME":"BEIDOU-3 G1 (PRN 130)","OBJECT_ID":"2018-085A","EPOCH":"2026-03-07T04:18:53.205408","MEAN_MOTION":1.00267768,"ECCENTRICITY":0.0001582,"INCLINATION":2.8177,"RA_OF_ASC_NODE":100.3057,"ARG_OF_PERICENTER":15.4114,"MEAN_ANOMALY":253.8947,"EPHEMERIS_TYPE":0,"CLASSIFICATION_TYPE":"U","NORAD_CAT_ID":43683,"ELEMENT_SET_NO":999,"REV_AT_EPOCH":2703,"BSTAR":0,"MEAN_MOTION_DOT":-2.81e-6,"MEAN_MOTION_DDOT":0},{"OBJECT_NAME":"EUTELSAT 5 WEST B (EGNOS/PRN 121)","OBJECT_ID":"2019-067A","EPOCH":"2026-03-06T23:36:38.557440","MEAN_MOTION":1.00273182,"ECCENTRICITY":0.0003221,"INCLINATION":0.0903,"RA_OF_ASC_NODE":313.4142,"ARG_OF_PERICENTER":44.3118,"MEAN_ANOMALY":156.1052,"EPHEMERIS_TYPE":0,"CLASSIFICATION_TYPE":"U","NORAD_CAT_ID":44624,"ELEMENT_SET_NO":999,"REV_AT_EPOCH":2341,"BSTAR":0,"MEAN_MOTION_DOT":-4.5e-7,"MEAN_MOTION_DDOT":0},{"OBJECT_NAME":"BEIDOU-3 G2 (PRN 144)","OBJECT_ID":"2020-017A","EPOCH":"2026-03-07T04:01:32.368800","MEAN_MOTION":1.00272794,"ECCENTRICITY":0.0002716,"INCLINATION":2.6598,"RA_OF_ASC_NODE":45.6412,"ARG_OF_PERICENTER":311.4294,"MEAN_ANOMALY":308.2242,"EPHEMERIS_TYPE":0,"CLASSIFICATION_TYPE":"U","NORAD_CAT_ID":45344,"ELEMENT_SET_NO":999,"REV_AT_EPOCH":2223,"BSTAR":0,"MEAN_MOTION_DOT":-1.42e-6,"MEAN_MOTION_DDOT":0}]
